<?xml version="1.0" encoding="UTF-8"?>
<ndm xmlns:xsi="http://www.w3.org/2001/XMLSchema-instance" xsi:noNamespaceSchemaLocation="https://sanaregistry.org/r/ndmxml_unqualified/ndmxml-2.0.0-master-2.0.xsd">
<omm id="CCSDS_OMM_VERS" version="2.0">
<header><CREATION_DATE/><ORIGINATOR/></header><body><segment><metadata><OBJECT_NAME>ORBCOMM FM33 [-]</OBJECT_NAME><OBJECT_ID>1999-065D</OBJECT_ID><CENTER_NAME>EARTH</CENTER_NAME><REF_FRAME>TEME</REF_FRAME><TIME_SYSTEM>UTC</TIME_SYSTEM><MEAN_ELEMENT_THEORY>SGP4</MEAN_ELEMENT_THEORY></metadata><data><meanElements><EPOCH>2024-04-18T09:18:20.602080</EPOCH><MEAN_MOTION>14.37550048</MEAN_MOTION><ECCENTRICITY>.0007086</ECCENTRICITY><INCLINATION>45.0276</INCLINATION><RA_OF_ASC_NODE>214.7518</RA_OF_ASC_NODE><ARG_OF_PERICENTER>92.4174</ARG_OF_PERICENTER><MEAN_ANOMALY>17.6586</MEAN_ANOMALY></meanElements><tleParameters><EPHEMERIS_TYPE>0</EPHEMERIS_TYPE><CLASSIFICATION_TYPE>U</CLASSIFICATION_TYPE><NORAD_CAT_ID>25983</NORAD_CAT_ID><ELEMENT_SET_NO>999</ELEMENT_SET_NO><REV_AT_EPOCH>27488</REV_AT_EPOCH><BSTAR>.11683E-2</BSTAR><MEAN_MOTION_DOT>.3394E-4</MEAN_MOTION_DOT><MEAN_MOTION_DDOT>0</MEAN_MOTION_DDOT></tleParameters></data></segment></body></omm>
<omm id="CCSDS_OMM_VERS" version="2.0">
<header><CREATION_DATE/><ORIGINATOR/></header><body><segment><metadata><OBJECT_NAME>ORBCOMM FM36 [-]</OBJECT_NAME><OBJECT_ID>1999-065E</OBJECT_ID><CENTER_NAME>EARTH</CENTER_NAME><REF_FRAME>TEME</REF_FRAME><TIME_SYSTEM>UTC</TIME_SYSTEM><MEAN_ELEMENT_THEORY>SGP4</MEAN_ELEMENT_THEORY></metadata><data><meanElements><EPOCH>2024-04-19T13:21:31.310496</EPOCH><MEAN_MOTION>14.35434046</MEAN_MOTION><ECCENTRICITY>.0002887</ECCENTRICITY><INCLINATION>45.0390</INCLINATION><RA_OF_ASC_NODE>294.3605</RA_OF_ASC_NODE><ARG_OF_PERICENTER>323.1026</ARG_OF_PERICENTER><MEAN_ANOMALY>36.9623</MEAN_ANOMALY></meanElements><tleParameters><EPHEMERIS_TYPE>0</EPHEMERIS_TYPE><CLASSIFICATION_TYPE>U</CLASSIFICATION_TYPE><NORAD_CAT_ID>25984</NORAD_CAT_ID><ELEMENT_SET_NO>999</ELEMENT_SET_NO><REV_AT_EPOCH>27408</REV_AT_EPOCH><BSTAR>.16118E-2</BSTAR><MEAN_MOTION_DOT>.4534E-4</MEAN_MOTION_DOT><MEAN_MOTION_DDOT>0</MEAN_MOTION_DDOT></tleParameters></data></segment></body></omm>
<omm id="CCSDS_OMM_VERS" version="2.0">
<header><CREATION_DATE/><ORIGINATOR/></header><body><segment><metadata><OBJECT_NAME>ORBCOMM FM35 [+]</OBJECT_NAME><OBJECT_ID>1999-065F</OBJECT_ID><CENTER_NAME>EARTH</CENTER_NAME><REF_FRAME>TEME</REF_FRAME><TIME_SYSTEM>UTC</TIME_SYSTEM><MEAN_ELEMENT_THEORY>SGP4</MEAN_ELEMENT_THEORY></metadata><data><meanElements><EPOCH>2024-04-18T21:30:39.190752</EPOCH><MEAN_MOTION>14.35032441</MEAN_MOTION><ECCENTRICITY>.0003132</ECCENTRICITY><INCLINATION>45.0402</INCLINATION><RA_OF_ASC_NODE>300.0548</RA_OF_ASC_NODE><ARG_OF_PERICENTER>82.7703</ARG_OF_PERICENTER><MEAN_ANOMALY>277.3500</MEAN_ANOMALY></meanElements><tleParameters><EPHEMERIS_TYPE>0</EPHEMERIS_TYPE><CLASSIFICATION_TYPE>U</CLASSIFICATION_TYPE><NORAD_CAT_ID>25985</NORAD_CAT_ID><ELEMENT_SET_NO>999</ELEMENT_SET_NO><REV_AT_EPOCH>27379</REV_AT_EPOCH><BSTAR>.9193E-3</BSTAR><MEAN_MOTION_DOT>.2503E-4</MEAN_MOTION_DOT><MEAN_MOTION_DDOT>0</MEAN_MOTION_DDOT></tleParameters></data></segment></body></omm>
<omm id="CCSDS_OMM_VERS" version="2.0">
<header><CREATION_DATE/><ORIGINATOR/></header><body><segment><metadata><OBJECT_NAME>ORBCOMM FM34 [-]</OBJECT_NAME><OBJECT_ID>1999-065G</OBJECT_ID><CENTER_NAME>EARTH</CENTER_NAME><REF_FRAME>TEME</REF_FRAME><TIME_SYSTEM>UTC</TIME_SYSTEM><MEAN_ELEMENT_THEORY>SGP4</MEAN_ELEMENT_THEORY></metadata><data><meanElements><EPOCH>2024-04-18T15:46:35.334624</EPOCH><MEAN_MOTION>14.34995448</MEAN_MOTION><ECCENTRICITY>.0003211</ECCENTRICITY><INCLINATION>45.0394</INCLINATION><RA_OF_ASC_NODE>301.7116</RA_OF_ASC_NODE><ARG_OF_PERICENTER>19.9134</ARG_OF_PERICENTER><MEAN_ANOMALY>340.1838</MEAN_ANOMALY></meanElements><tleParameters><EPHEMERIS_TYPE>0</EPHEMERIS_TYPE><CLASSIFICATION_TYPE>U</CLASSIFICATION_TYPE><NORAD_CAT_ID>25986</NORAD_CAT_ID><ELEMENT_SET_NO>999</ELEMENT_SET_NO><REV_AT_EPOCH>27387</REV_AT_EPOCH><BSTAR>.9734E-3</BSTAR><MEAN_MOTION_DOT>.2657E-4</MEAN_MOTION_DOT><MEAN_MOTION_DDOT>0</MEAN_MOTION_DDOT></tleParameters></data></segment></body></omm>
<omm id="CCSDS_OMM_VERS" version="2.0">
<header><CREATION_DATE/><ORIGINATOR/></header><body><segment><metadata><OBJECT_NAME>ORBCOMM FM38 [-]</OBJECT_NAME><OBJECT_ID>2008-031A</OBJECT_ID><CENTER_NAME>EARTH</CENTER_NAME><REF_FRAME>TEME</REF_FRAME><TIME_SYSTEM>UTC</TIME_SYSTEM><MEAN_ELEMENT_THEORY>SGP4</MEAN_ELEMENT_THEORY></metadata><data><meanElements><EPOCH>2024-04-19T12:48:06.920352</EPOCH><MEAN_MOTION>14.77343100</MEAN_MOTION><ECCENTRICITY>.0005389</ECCENTRICITY><INCLINATION>48.4398</INCLINATION><RA_OF_ASC_NODE>168.1303</RA_OF_ASC_NODE><ARG_OF_PERICENTER>15.1846</ARG_OF_PERICENTER><MEAN_ANOMALY>344.9228</MEAN_ANOMALY></meanElements><tleParameters><EPHEMERIS_TYPE>0</EPHEMERIS_TYPE><CLASSIFICATION_TYPE>U</CLASSIFICATION_TYPE><NORAD_CAT_ID>33060</NORAD_CAT_ID><ELEMENT_SET_NO>999</ELEMENT_SET_NO><REV_AT_EPOCH>85201</REV_AT_EPOCH><BSTAR>.742E-3</BSTAR><MEAN_MOTION_DOT>.5125E-4</MEAN_MOTION_DOT><MEAN_MOTION_DDOT>0</MEAN_MOTION_DDOT></tleParameters></data></segment></body></omm>
<omm id="CCSDS_OMM_VERS" version="2.0">
<header><CREATION_DATE/><ORIGINATOR/></header><body><segment><metadata><OBJECT_NAME>ORBCOMM FM41 [-]</OBJECT_NAME><OBJECT_ID>2008-031B</OBJECT_ID><CENTER_NAME>EARTH</CENTER_NAME><REF_FRAME>TEME</REF_FRAME><TIME_SYSTEM>UTC</TIME_SYSTEM><MEAN_ELEMENT_THEORY>SGP4</MEAN_ELEMENT_THEORY></metadata><data><meanElements><EPOCH>2024-04-18T10:38:17.694240</EPOCH><MEAN_MOTION>14.77063149</MEAN_MOTION><ECCENTRICITY>.0004811</ECCENTRICITY><INCLINATION>48.4436</INCLINATION><RA_OF_ASC_NODE>179.8611</RA_OF_ASC_NODE><ARG_OF_PERICENTER>354.4818</ARG_OF_PERICENTER><MEAN_ANOMALY>101.7349</MEAN_ANOMALY></meanElements><tleParameters><EPHEMERIS_TYPE>0</EPHEMERIS_TYPE><CLASSIFICATION_TYPE>U</CLASSIFICATION_TYPE><NORAD_CAT_ID>33061</NORAD_CAT_ID><ELEMENT_SET_NO>999</ELEMENT_SET_NO><REV_AT_EPOCH>85136</REV_AT_EPOCH><BSTAR>.69295E-3</BSTAR><MEAN_MOTION_DOT>.474E-4</MEAN_MOTION_DOT><MEAN_MOTION_DDOT>0</MEAN_MOTION_DDOT></tleParameters></data></segment></body></omm>
<omm id="CCSDS_OMM_VERS" version="2.0">
<header><CREATION_DATE/><ORIGINATOR/></header><body><segment><metadata><OBJECT_NAME>ORBCOMM FM29 [-]</OBJECT_NAME><OBJECT_ID>2008-031C</OBJECT_ID><CENTER_NAME>EARTH</CENTER_NAME><REF_FRAME>TEME</REF_FRAME><TIME_SYSTEM>UTC</TIME_SYSTEM><MEAN_ELEMENT_THEORY>SGP4</MEAN_ELEMENT_THEORY></metadata><data><meanElements><EPOCH>2024-04-19T05:31:07.677408</EPOCH><MEAN_MOTION>14.76997935</MEAN_MOTION><ECCENTRICITY>.0006553</ECCENTRICITY><INCLINATION>48.4385</INCLINATION><RA_OF_ASC_NODE>184.1719</RA_OF_ASC_NODE><ARG_OF_PERICENTER>359.1475</ARG_OF_PERICENTER><MEAN_ANOMALY>30.6424</MEAN_ANOMALY></meanElements><tleParameters><EPHEMERIS_TYPE>0</EPHEMERIS_TYPE><CLASSIFICATION_TYPE>U</CLASSIFICATION_TYPE><NORAD_CAT_ID>33062</NORAD_CAT_ID><ELEMENT_SET_NO>999</ELEMENT_SET_NO><REV_AT_EPOCH>85178</REV_AT_EPOCH><BSTAR>.71119E-3</BSTAR><MEAN_MOTION_DOT>.4863E-4</MEAN_MOTION_DOT><MEAN_MOTION_DDOT>0</MEAN_MOTION_DDOT></tleParameters></data></segment></body></omm>
<omm id="CCSDS_OMM_VERS" version="2.0">
<header><CREATION_DATE/><ORIGINATOR/></header><body><segment><metadata><OBJECT_NAME>ORBCOMM FM39 [-]</OBJECT_NAME><OBJECT_ID>2008-031D</OBJECT_ID><CENTER_NAME>EARTH</CENTER_NAME><REF_FRAME>TEME</REF_FRAME><TIME_SYSTEM>UTC</TIME_SYSTEM><MEAN_ELEMENT_THEORY>SGP4</MEAN_ELEMENT_THEORY></metadata><data><meanElements><EPOCH>2024-04-18T11:58:00.793920</EPOCH><MEAN_MOTION>14.76018809</MEAN_MOTION><ECCENTRICITY>.0007715</ECCENTRICITY><INCLINATION>48.4397</INCLINATION><RA_OF_ASC_NODE>207.9852</RA_OF_ASC_NODE><ARG_OF_PERICENTER>333.0524</ARG_OF_PERICENTER><MEAN_ANOMALY>26.9988</MEAN_ANOMALY></meanElements><tleParameters><EPHEMERIS_TYPE>0</EPHEMERIS_TYPE><CLASSIFICATION_TYPE>U</CLASSIFICATION_TYPE><NORAD_CAT_ID>33063</NORAD_CAT_ID><ELEMENT_SET_NO>999</ELEMENT_SET_NO><REV_AT_EPOCH>85098</REV_AT_EPOCH><BSTAR>.65156E-3</BSTAR><MEAN_MOTION_DOT>.4334E-4</MEAN_MOTION_DOT><MEAN_MOTION_DDOT>0</MEAN_MOTION_DDOT></tleParameters></data></segment></body></omm>

</ndm>
